NORAD_CAT_ID,OBJECT_NAME,OBJECT_TYPE,EPOCH,MEAN_MOTION,ECCENTRICITY,INCLINATION,RA_OF_ASC_NODE,ARG_OF_PERICENTER,MEAN_ANOMALY,BSTAR,MEAN_MOTION_DOT,MEAN_MOTION_DDOT,TLE_LINE0,TLE_LINE1,TLE_LINE2,SEMIMAJOR_AXIS,PERIOD,APOGEE,PERIGEE,DECAYED
50849.0,STARLINK-3311,PAYLOAD,2024-05-09 18:38:04,15.08856861,0.0001005,53.2158,301.9913,92.127,267.9837,0.00044327,6.777e-05,0.0,0 STARLINK-3311,1 50849U 22001AY  24130.77644152  .00006777  00000-0  44327-3 0  9997,2 50849  53.2158 301.9913 0001005  92.1270 267.9837 15.08856861130481,6917.829,95.436,540.389,538.999,0.0
50849.0,STARLINK-3311,PAYLOAD,2024-05-10 04:10:23,15.08848333,8.89e-05,53.2147,300.2087,102.0521,258.0571,0.00029808,4.46e-05,0.0,0 STARLINK-3311,1 50849U 22001AY  24131.17388347  .00004460  00000-0  29808-3 0  9997,2 50849  53.2147 300.2087 0000889 102.0521 258.0571 15.08848333130540,6917.855,95.437,540.335,539.105,0.0
50849.0,STARLINK-3311,PAYLOAD,2024-05-10 20:04:14,15.08850982,0.0001343,53.2174,297.232,90.8226,269.292,0.00023529,3.46e-05,0.0,0 STARLINK-3311,1 50849U 22001AY  24131.83628341  .00003460  00000-0  23529-3 0  9994,2 50849  53.2174 297.2320 0001343  90.8226 269.2920 15.08850982129449,6917.847,95.437,540.641,538.783,0.0
50849.0,STARLINK-3311,PAYLOAD,2024-05-11 10:22:40,15.0890815,0.0001173,53.2175,294.5563,101.9146,258.1978,0.00099063,0.00015542,0.0,0 STARLINK-3311,1 50849U 22001AY  24132.43241652  .00015542  00000-0  99063-3 0  9997,2 50849  53.2175 294.5563 0001173 101.9146 258.1978 15.08908150130730,6917.672,95.433,540.349,538.726,0.0
50849.0,STARLINK-3311,PAYLOAD,2024-05-11 19:55:02,15.08794955,0.0001794,53.2144,292.7749,94.3561,265.7636,-0.0016337,-0.00026163,0.0,0 STARLINK-3311,1 50849U 22001AY  24132.82988439 -.00026163  00000-0 -16337-2 0  9996,2 50849  53.2144 292.7749 0001794  94.3561 265.7636 15.08794955130794,6918.018,95.44,541.124,538.642,0.0
50849.0,STARLINK-3311,PAYLOAD,2024-05-12 03:52:00,15.08727455,0.000232,53.2169,291.2906,75.4978,284.6271,-0.0027948,-0.0004436,0.0,0 STARLINK-3311,1 50849U 22001AY  24133.16111944 -.00044360  00000-0 -27948-2 0  9992,2 50849  53.2169 291.2906 0002320  75.4978 284.6271 15.08727455130840,6918.224,95.445,541.694,538.484,0.0
50849.0,STARLINK-3311,PAYLOAD,2024-05-12 10:13:34,15.0872548,4.43e-05,53.2182,290.092,237.7832,122.3117,-0.0020016,-0.00031902,0.0,0 STARLINK-3311,1 50849U 22001AY  24133.42609206 -.00031902  00000-0 -20016-2 0  9991,2 50849  53.2182 290.0920 0000443 237.7832 122.3117 15.08725480129687,6918.23,95.445,540.402,539.789,0.0
50849.0,STARLINK-3311,PAYLOAD,2024-05-12 16:35:05,15.0881952,0.0001267,53.2167,288.9068,88.5917,271.522,0.00086101,0.00013434,0.0,0 STARLINK-3311,1 50849U 22001AY  24133.69103737  .00013434  00000-0  86101-3 0  9994,2 50849  53.2167 288.9068 0001267  88.5917 271.5220 15.08819520130920,6917.943,95.439,540.684,538.931,0.0
50849.0,STARLINK-3311,PAYLOAD,2024-05-13 03:42:48,15.08830698,0.000142,53.2171,286.8238,100.3973,259.7179,0.0015763,0.00024881,0.0,0 STARLINK-3311,1 50849U 22001AY  24134.15472483  .00024881  00000-0  15763-2 0  9996,2 50849  53.2171 286.8238 0001420 100.3973 259.7179 15.08830698129790,6917.909,95.438,540.756,538.791,0.0
50849.0,STARLINK-3311,PAYLOAD,2024-05-13 19:36:37,15.0888651,0.0001318,53.2155,283.8511,83.0646,277.0496,0.00080095,0.00012498,0.0,0 STARLINK-3311,1 50849U 22001AY  24134.81710595  .00012498  00000-0  80095-3 0  9990,2 50849  53.2155 283.8511 0001318  83.0646 277.0496 15.08886510131098,6917.738,95.435,540.515,538.691,0.0
50849.0,STARLINK-3311,PAYLOAD,2024-05-14 03:33:33,15.08869617,0.0002267,53.2165,282.3634,90.2421,269.8831,0.00025616,3.794e-05,0.0,0 STARLINK-3311,1 50849U 22001AY  24135.14830498  .00003794  00000-0  25616-3 0  9999,2 50849  53.2165 282.3634 0002267  90.2421 269.8831 15.08869617131141,6917.79,95.436,541.223,538.087,0.0
50849.0,STARLINK-3311,PAYLOAD,2024-05-14 16:16:37,15.08878565,0.0002376,53.216,279.9827,97.0488,263.0775,0.00024965,3.691e-05,0.0,0 STARLINK-3311,1 50849U 22001AY  24135.67821112  .00003691  00000-0  24965-3 0  9992,2 50849  53.2160 279.9827 0002376  97.0488 263.0775 15.08878565130022,6917.763,95.435,541.271,537.984,0.0
50849.0,STARLINK-3311,PAYLOAD,2024-05-15 12:56:37,15.0885548,0.0001317,53.215,276.1163,93.9927,266.1216,0.00017343,2.474e-05,0.0,0 STARLINK-3311,1 50849U 22001AY  24136.53932779  .00002474  00000-0  17343-3 0  9990,2 50849  53.2150 276.1163 0001317  93.9927 266.1216 15.08855480131352,6917.833,95.437,540.609,538.787,0.0
50849.0,STARLINK-3311,PAYLOAD,2024-05-15 14:32:00,15.08860814,0.0001526,53.2165,275.8195,94.52,265.5967,0.00012765,1.745e-05,0.0,0 STARLINK-3311,1 50849U 22001AY  24136.60556576  .00001745  00000-0  12765-3 0  9998,2 50849  53.2165 275.8195 0001526  94.5200 265.5967 15.08860814130163,6917.817,95.436,540.737,538.626,0.0
50849.0,STARLINK-3311,PAYLOAD,2024-05-15 16:07:24,15.0886299,0.0001707,53.217,275.5224,93.8749,266.2438,0.0002856,4.263e-05,0.0,0 STARLINK-3311,1 50849U 22001AY  24136.67180575  .00004263  00000-0  28560-3 0  9995,2 50849  53.2170 275.5224 0001707  93.8749 266.2438 15.08862990130179,6917.81,95.436,540.856,538.494,0.0
50849.0,STARLINK-3311,PAYLOAD,2024-05-16 09:36:38,15.08850193,0.0002181,53.2161,272.2532,82.8215,277.3025,0.00013031,1.787e-05,0.0,0 STARLINK-3311,1 50849U 22001AY  24137.40044558  .00001787  00000-0  13031-3 0  9992,2 50849  53.2161 272.2532 0002181  82.8215 277.3025 15.08850193131480,6917.849,95.437,541.223,538.205,0.0
50849.0,STARLINK-3311,PAYLOAD,2024-05-17 12:38:11,15.08839011,0.0001786,53.217,267.1989,93.9181,266.2015,-0.00012413,-2.263e-05,0.0,0 STARLINK-3311,1 50849U 22001AY  24138.52652438 -.00002263  00000-0 -12413-3 0  9993,2 50849  53.2170 267.1989 0001786  93.9181 266.2015 15.08839011131655,6917.883,95.438,540.984,538.513,0.0
50849.0,STARLINK-3311,PAYLOAD,2024-05-17 15:48:57,15.0885868,0.0001411,53.2155,266.6003,67.9326,292.1816,0.00038981,5.924e-05,0.0,0 STARLINK-3311,1 50849U 22001AY  24138.65899859  .00005924  00000-0  38981-3 0  9990,2 50849  53.2155 266.6003 0001411  67.9326 292.1816 15.08858680131678,6917.823,95.436,540.664,538.712,0.0
50849.0,STARLINK-3311,PAYLOAD,2024-05-18 01:21:16,15.08852299,0.000137,53.2155,264.8162,60.5158,299.597,0.00026888,3.995e-05,0.0,0 STARLINK-3311,1 50849U 22001AY  24139.05643855  .00003995  00000-0  26888-3 0  9997,2 50849  53.2155 264.8162 0001370  60.5158 299.5970 15.08852299131739,6917.843,95.437,540.656,538.76,0.0
50849.0,STARLINK-3311,PAYLOAD,2024-05-18 12:28:58,15.08849062,0.0001772,53.2145,262.7362,92.1825,267.937,0.00018236,2.616e-05,0.0,0 STARLINK-3311,1 50849U 22001AY  24139.52012003  .00002616  00000-0  18236-3 0  9991,2 50849  53.2145 262.7362 0001772  92.1825 267.9370 15.08849062131800,6917.853,95.437,540.944,538.492,0.0
50849.0,STARLINK-3311,PAYLOAD,2024-05-18 14:04:21,15.08854557,0.0001281,53.2146,262.4373,78.9944,281.1192,0.00030238,4.53e-05,0.0,0 STARLINK-3311,1 50849U 22001AY  24139.58635700  .00004530  00000-0  30238-3 0  9995,2 50849  53.2146 262.4373 0001281  78.9944 281.1192 15.08854557130612,6917.836,95.437,540.587,538.815,0.0
50849.0,STARLINK-3311,PAYLOAD,2024-05-18 15:39:44,15.08859044,0.0001449,53.2146,262.1391,72.5185,287.5965,0.00044935,6.874e-05,0.0,0 STARLINK-3311,1 50849U 22001AY  24139.65259590  .00006874  00000-0  44935-3 0  9994,2 50849  53.2146 262.1391 0001449  72.5185 287.5965 15.08859044131820,6917.822,95.436,540.69,538.685,0.0
50849.0,STARLINK-3311,PAYLOAD,2024-05-19 13:55:10,15.08814126,0.0001315,53.2138,257.9786,96.799,263.3152,-0.00028057,-4.747e-05,0.0,0 STARLINK-3311,1 50849U 22001AY  24140.57998205 -.00004747  00000-0 -28057-3 0  9996,2 50849  53.2138 257.9786 0001315  96.7990 263.3152 15.08814126130769,6917.959,95.439,540.734,538.915,0.0
50849.0,STARLINK-3311,PAYLOAD,2024-05-20 12:10:34,15.08844032,0.0001595,53.2147,253.8192,52.3051,307.8085,0.00088458,0.0001382,0.0,0 STARLINK-3311,1 50849U 22001AY  24141.50734386  .00013820  00000-0  88458-3 0  9999,2 50849  53.2147 253.8192 0001595  52.3051 307.8085 15.08844032132109,6917.868,95.437,540.836,538.63,0.0
50849.0,STARLINK-3311,PAYLOAD,2024-05-20 13:45:56,15.0886552,0.0001459,53.2155,253.5147,84.2208,275.895,0.0010973,0.00017231,0.0,0 STARLINK-3311,1 50849U 22001AY  24141.57357178  .00017231  00000-0  10973-2 0  9992,2 50849  53.2155 253.5147 0001459  84.2208 275.8950 15.08865520130919,6917.802,95.436,540.677,538.658,0.0
50849.0,STARLINK-3311,PAYLOAD,2024-05-20 16:56:42,15.08868331,0.0001531,53.2157,252.9205,92.5781,267.5387,0.0011376,0.00017877,0.0,0 STARLINK-3311,1 50849U 22001AY  24141.70605015  .00017877  00000-0  11376-2 0  9997,2 50849  53.2157 252.9205 0001531  92.5781 267.5387 15.08868331132139,6917.794,95.436,540.718,538.6,0.0
50849.0,STARLINK-3311,PAYLOAD,2024-05-21 12:01:21,15.08844068,0.0001568,53.2159,249.3548,94.6358,265.4814,0.00010643,1.406e-05,0.0,0 STARLINK-3311,1 50849U 22001AY  24142.50094066  .00001406  00000-0  10643-3 0  9992,2 50849  53.2159 249.3548 0001568  94.6358 265.4814 15.08844068132250,6917.868,95.437,540.818,538.648,0.0
50849.0,STARLINK-3311,PAYLOAD,2024-05-21 13:36:44,15.08846313,0.0001542,53.216,249.0581,89.0259,271.091,0.0001489,2.083e-05,0.0,0 STARLINK-3311,1 50849U 22001AY  24142.56718004  .00002083  00000-0  14890-3 0  9993,2 50849  53.2160 249.0581 0001542  89.0259 271.0910 15.08846313131069,6917.861,95.437,540.793,538.659,0.0
50849.0,STARLINK-3311,PAYLOAD,2024-05-22 11:52:08,15.08847099,0.0001575,53.2174,244.8983,75.2455,284.8711,0.00017507,2.5e-05,0.0,0 STARLINK-3311,1 50849U 22001AY  24143.49453844  .00002500  00000-0  17507-3 0  9996,2 50849  53.2174 244.8983 0001575  75.2455 284.8711 15.08847099131203,6917.859,95.437,540.813,538.634,0.0
50849.0,STARLINK-3311,PAYLOAD,2024-05-23 13:18:16,15.08874213,0.000128,53.2171,240.1422,89.1621,270.9518,-0.0012307,-0.00019839,0.0,0 STARLINK-3311,1 50849U 22001AY  24144.55436176 -.00019839  00000-0 -12307-2 0  9990,2 50849  53.2171 240.1422 0001280  89.1621 270.9518 15.08874213132568,6917.776,95.435,540.526,538.755,0.0
